{
    "CCSDS_OMM_VERS": "3.0",
    "COMMENT": "GENERATED VIA SPACE-TRACK.ORG API",
    "CREATION_DATE": "2025-11-22T18:56:57",
    "ORIGINATOR": "18 SPCS",
    "OBJECT_NAME": "NAVSTAR 71 (USA 256)",
    "OBJECT_ID": "2014-045A",
    "CENTER_NAME": "EARTH",
    "REF_FRAME": "TEME",
    "TIME_SYSTEM": "UTC",
    "MEAN_ELEMENT_THEORY": "SGP4",
    "EPOCH": "2025-11-22T03:22:18.446592",
    "MEAN_MOTION": "2.00571349",
    "ECCENTRICITY": "0.00330960",
    "INCLINATION": "55.2164",
    "RA_OF_ASC_NODE": "96.7208",
    "ARG_OF_PERICENTER": "119.3570",
    "MEAN_ANOMALY": "240.9474",
    "EPHEMERIS_TYPE": "0",
    "CLASSIFICATION_TYPE": "U",
    "NORAD_CAT_ID": "40105",
    "ELEMENT_SET_NO": "999",
    "REV_AT_EPOCH": "8192",
    "BSTAR": "0.00000000000000",
    "MEAN_MOTION_DOT": "0.00000006",
    "MEAN_MOTION_DDOT": "0.0000000000000",
    "SEMIMAJOR_AXIS": "26559.664",
    "PERIOD": "717.949",
    "APOAPSIS": "20269.431",
    "PERIAPSIS": "20093.627",
    "OBJECT_TYPE": "PAYLOAD",
    "RCS_SIZE": "LARGE",
    "COUNTRY_CODE": "US",
    "LAUNCH_DATE": "2014-08-02",
    "SITE": "AFETR",
    "DECAY_DATE": null,
    "FILE": "4894246",
    "GP_ID": "303251558",
    "TLE_LINE0": "0 NAVSTAR 71 (USA 256)",
    "TLE_LINE1": "1 40105U 14045A   25326.14049128  .00000006  00000-0  00000-0 0  9997",
    "TLE_LINE2": "2 40105  55.2164  96.7208 0033096 119.3570 240.9474  2.00571349 81925"
}